NORAD_CAT_ID,OBJECT_NAME,OBJECT_TYPE,EPOCH,MEAN_MOTION,ECCENTRICITY,INCLINATION,RA_OF_ASC_NODE,ARG_OF_PERICENTER,MEAN_ANOMALY,BSTAR,MEAN_MOTION_DOT,MEAN_MOTION_DDOT,TLE_LINE0,TLE_LINE1,TLE_LINE2,SEMIMAJOR_AXIS,PERIOD,APOGEE,PERIGEE,DECAYED
55436.0,STARLINK-5640,PAYLOAD,2024-03-11 12:18:24,14.98321458,0.0002927,69.9997,140.5002,267.0118,93.0706,0.0003657,4.272e-05,0.0,0 STARLINK-5640,1 55436U 23014AX  24071.51278491  .00004272  00000-0  36570-3 0  9993,2 55436  69.9997 140.5002 0002927 267.0118  93.0706 14.98321458 61053,6950.219,96.108,574.119,570.05,0.0
55436.0,STARLINK-5640,PAYLOAD,2024-03-11 15:30:40,14.98336799,0.00028,70.0002,140.1641,266.0578,94.0261,0.00018382,2.101e-05,0.0,0 STARLINK-5640,1 55436U 23014AX  24071.64629762  .00002101  00000-0  18382-3 0  9998,2 55436  70.0002 140.1641 0002800 266.0578  94.0261 14.98336799 61070,6950.172,96.107,573.983,570.091,0.0
55436.0,STARLINK-5640,PAYLOAD,2024-03-12 12:20:25,14.98327497,0.0002453,70.0005,137.9748,255.0837,105.0051,8.1769e-05,8.83e-06,0.0,0 STARLINK-5640,1 55436U 23014AX  24072.51418627  .00000883  00000-0  81769-4 0  9996,2 55436  70.0005 137.9748 0002453 255.0837 105.0051 14.98327497 61205,6950.201,96.107,573.771,570.361,0.0
55436.0,STARLINK-5640,PAYLOAD,2024-03-12 21:57:13,14.98332299,0.000297,69.9996,136.9646,269.302,90.7798,7.9279e-05,8.53e-06,0.0,0 STARLINK-5640,1 55436U 23014AX  24072.91474348  .00000853  00000-0  79279-4 0  9992,2 55436  69.9996 136.9646 0002970 269.3020  90.7798 14.98332299 62208,6950.186,96.107,574.115,569.987,0.0
55436.0,STARLINK-5640,PAYLOAD,2024-03-13 04:21:45,14.98335512,0.0003004,69.9993,136.2913,269.5706,90.5109,8.3302e-05,9.01e-06,0.0,0 STARLINK-5640,1 55436U 23014AX  24073.18178051  .00000901  00000-0  83302-4 0  9990,2 55436  69.9993 136.2913 0003004 269.5706  90.5109 14.98335512 61302,6950.176,96.107,574.129,569.953,0.0
55436.0,STARLINK-5640,PAYLOAD,2024-03-13 12:22:25,14.98339629,0.0003039,69.9994,135.4507,268.7744,91.3067,0.00010625,1.175e-05,0.0,0 STARLINK-5640,1 55436U 23014AX  24073.51557737  .00001175  00000-0  10625-3 0  9990,2 55436  69.9994 135.4507 0003039 268.7744  91.3067 14.98339629 62298,6950.163,96.106,574.14,569.916,0.0
55436.0,STARLINK-5640,PAYLOAD,2024-03-14 04:23:46,14.98334097,0.0003078,69.9992,133.7675,270.0824,89.9982,9.6552e-05,1.059e-05,0.0,0 STARLINK-5640,1 55436U 23014AX  24074.18317971  .00001059  00000-0  96552-4 0  9993,2 55436  69.9992 133.7675 0003078 270.0824  89.9982 14.98334097 61451,6950.18,96.107,574.184,569.906,0.0
55436.0,STARLINK-5640,PAYLOAD,2024-03-14 05:59:54,14.98334331,0.0003079,69.9992,133.5992,270.0907,89.9899,9.6112e-05,1.054e-05,0.0,0 STARLINK-5640,1 55436U 23014AX  24074.24993936  .00001054  00000-0  96112-4 0  9998,2 55436  69.9992 133.5992 0003079 270.0907  89.9899 14.98334331 62408,6950.179,96.107,574.184,569.905,0.0
55436.0,STARLINK-5640,PAYLOAD,2024-03-14 14:00:34,14.98338373,0.0003044,69.9992,132.7573,269.8495,90.2316,0.00013068,1.467e-05,0.0,0 STARLINK-5640,1 55436U 23014AX  24074.58373468  .00001467  00000-0  13068-3 0  9993,2 55436  69.9992 132.7573 0003044 269.8495  90.2316 14.98338373 62458,6950.167,96.106,574.148,569.916,0.0
55436.0,STARLINK-5640,PAYLOAD,2024-03-15 04:25:47,14.98332855,0.0002711,70.0002,131.2434,270.3892,89.6956,6.2485e-05,6.53e-06,0.0,0 STARLINK-5640,1 55436U 23014AX  24075.18457888  .00000653  00000-0  62485-4 0  9993,2 55436  70.0002 131.2434 0002711 270.3892  89.6956 14.98332855 61608,6950.184,96.107,573.933,570.165,0.0
55436.0,STARLINK-5640,PAYLOAD,2024-03-15 12:26:27,14.98332851,0.0002702,70.0001,130.4019,268.1153,91.9697,2.8902e-05,2.52e-06,0.0,0 STARLINK-5640,1 55436U 23014AX  24075.51837812  .00000252  00000-0  28902-4 0  9990,2 55436  70.0001 130.4019 0002702 268.1153  91.9697 14.98332851 62595,6950.184,96.107,573.927,570.171,0.0
55436.0,STARLINK-5640,PAYLOAD,2024-03-16 04:27:51,14.98296518,0.0002325,70.0023,128.7213,238.6273,121.4659,-0.0002266,-2.793e-05,0.0,0 STARLINK-5640,1 55436U 23014AX  24076.18601475 -.00002793  00000-0 -22660-3 0  9996,2 55436  70.0023 128.7213 0002325 238.6273 121.4659 14.98296518 61754,6950.296,96.109,573.777,570.545,0.0
55436.0,STARLINK-5640,PAYLOAD,2024-03-16 12:28:30,14.98326587,0.0002919,69.9992,127.8766,267.0364,93.0461,2.7052e-05,2.3e-06,0.0,0 STARLINK-5640,1 55436U 23014AX  24076.51979448  .00000230  00000-0  27052-4 0  9994,2 55436  69.9992 127.8766 0002919 267.0364  93.0461 14.98326587 61806,6950.203,96.107,574.097,570.04,0.0
55436.0,STARLINK-5640,PAYLOAD,2024-03-17 12:30:30,14.98333639,0.0002778,69.9995,125.3522,265.4745,94.6096,0.00015291,1.732e-05,0.0,0 STARLINK-5640,1 55436U 23014AX  24077.52118834  .00001732  00000-0  15291-3 0  9999,2 55436  69.9995 125.3522 0002778 265.4745  94.6096 14.98333639 61953,6950.182,96.107,573.977,570.116,0.0
55436.0,STARLINK-5640,PAYLOAD,2024-03-18 10:56:23,14.98322277,0.0002566,70.0001,122.9962,256.0008,104.0866,0.00067044,7.914e-05,0.0,0 STARLINK-5640,1 55436U 23014AX  24078.45582608  .00007914  00000-0  67044-3 0  9997,2 55436  70.0001 122.9962 0002566 256.0008 104.0866 14.98322277 63036,6950.217,96.107,573.865,570.298,0.0
55436.0,STARLINK-5640,PAYLOAD,2024-03-19 10:58:23,14.98340187,0.0002837,69.9991,120.47,263.4889,96.5947,3.534e-06,-5.1e-07,0.0,0 STARLINK-5640,1 55436U 23014AX  24079.45722173 -.00000051  00000-0  35340-5 0  9993,2 55436  69.9991 120.4700 0002837 263.4889  96.5947 14.98340187 63185,6950.161,96.106,573.998,570.055,0.0
55436.0,STARLINK-5640,PAYLOAD,2024-03-19 12:34:31,14.9834094,0.0002829,69.9992,120.3018,263.0724,97.0113,1.1987e-05,5e-07,0.0,0 STARLINK-5640,1 55436U 23014AX  24079.52398069  .00000050  00000-0  11987-4 0  9992,2 55436  69.9992 120.3018 0002829 263.0724  97.0113 14.98340940 62257,6950.159,96.106,573.99,570.058,0.0
55436.0,STARLINK-5640,PAYLOAD,2024-03-20 12:36:32,14.98337306,0.0002694,69.9994,117.7768,262.803,97.2823,-0.00012756,-1.615e-05,0.0,0 STARLINK-5640,1 55436U 23014AX  24080.52537947 -.00001615  00000-0 -12756-3 0  9998,2 55436  69.9994 117.7768 0002694 262.8030  97.2823 14.98337306 63341,6950.17,96.107,573.908,570.163,0.0
55436.0,STARLINK-5640,PAYLOAD,2024-03-21 12:38:33,14.98335443,0.0002861,69.999,115.2518,265.6509,94.4324,5.0334e-05,5.08e-06,0.0,0 STARLINK-5640,1 55436U 23014AX  24081.52677328  .00000508  00000-0  50334-4 0  9990,2 55436  69.9990 115.2518 0002861 265.6509  94.4324 14.98335443 62558,6950.176,96.107,574.03,570.053,0.0
55436.0,STARLINK-5640,PAYLOAD,2024-03-22 12:40:33,14.98335578,0.0002798,69.999,112.7266,264.5967,95.4873,0.00012438,1.392e-05,0.0,0 STARLINK-5640,1 55436U 23014AX  24082.52816936  .00001392  00000-0  12438-3 0  9995,2 55436  69.9990 112.7266 0002798 264.5967  95.4873 14.98335578 62701,6950.176,96.107,573.985,570.096,0.0
55436.0,STARLINK-5640,PAYLOAD,2024-03-23 04:41:55,14.98323352,0.000253,69.9995,111.0435,255.9717,104.1161,-4.0119e-05,-5.71e-06,0.0,0 STARLINK-5640,1 55436U 23014AX  24083.19578248 -.00000571  00000-0 -40119-4 0  9998,2 55436  69.9995 111.0435 0002530 255.9717 104.1161 14.98323352 62803,6950.213,96.107,573.837,570.32,0.0
55436.0,STARLINK-5640,PAYLOAD,2024-03-23 19:07:08,14.98321204,0.0002365,70.0005,109.5257,273.3956,86.6933,-8.1788e-05,-1.068e-05,0.0,0 STARLINK-5640,1 55436U 23014AX  24083.79662917 -.00001068  00000-0 -81788-4 0  9990,2 55436  70.0005 109.5257 0002365 273.3956  86.6933 14.98321204 63836,6950.22,96.108,573.729,570.441,0.0
55436.0,STARLINK-5640,PAYLOAD,2024-03-24 04:43:56,14.98330704,0.0003238,69.9983,108.5176,269.7049,90.3739,7.2438e-06,-7e-08,0.0,0 STARLINK-5640,1 55436U 23014AX  24084.19717938 -.00000007  00000-0  72438-5 0  9993,2 55436  69.9983 108.5176 0003238 269.7049  90.3739 14.98330704 62952,6950.191,96.107,574.306,569.805,0.0
55436.0,STARLINK-5640,PAYLOAD,2024-03-24 11:08:28,14.98338775,0.0003094,69.9986,107.8441,268.8004,91.2801,0.00011866,1.323e-05,0.0,0 STARLINK-5640,1 55436U 23014AX  24084.46421302  .00001323  00000-0  11866-3 0  9997,2 55436  69.9986 107.8441 0003094 268.8004  91.2801 14.98338775 62993,6950.166,96.106,574.181,569.88,0.0
55436.0,STARLINK-5640,PAYLOAD,2024-03-24 19:09:08,14.98338769,0.0002872,69.9994,107.0002,271.4028,88.6802,0.00011491,1.279e-05,0.0,0 STARLINK-5640,1 55436U 23014AX  24084.79801526  .00001279  00000-0  11491-3 0  9997,2 55436  69.9994 107.0002 0002872 271.4028  88.6802 14.98338769 63980,6950.166,96.106,574.027,570.035,0.0
55436.0,STARLINK-5640,PAYLOAD,2024-03-25 04:45:57,14.98327532,0.0002918,69.9991,105.9921,270.4753,89.6072,0.000179,2.043e-05,0.0,0 STARLINK-5640,1 55436U 23014AX  24085.19857953  .00002043  00000-0  17900-3 0  9998,2 55436  69.9991 105.9921 0002918 270.4753  89.6072 14.98327532 63109,6950.201,96.107,574.094,570.037,0.0
55436.0,STARLINK-5640,PAYLOAD,2024-03-25 19:11:09,14.98330082,0.0003062,69.999,104.4772,270.016,90.0649,0.00013186,1.481e-05,0.0,0 STARLINK-5640,1 55436U 23014AX  24085.79942101  .00001481  00000-0  13186-3 0  9991,2 55436  69.9990 104.4772 0003062 270.0160  90.0649 14.98330082 64139,6950.193,96.107,574.186,569.929,0.0
55436.0,STARLINK-5640,PAYLOAD,2024-03-26 04:47:58,14.98330847,0.0003139,69.9987,103.4674,270.2279,89.852,5.5634e-05,5.71e-06,0.0,0 STARLINK-5640,1 55436U 23014AX  24086.19998143  .00000571  00000-0  55634-4 0  9997,2 55436  69.9987 103.4674 0003139 270.2279  89.8520 14.98330847 63258,6950.19,96.107,574.237,569.874,0.0
55436.0,STARLINK-5640,PAYLOAD,2024-03-26 14:24:46,14.98334,0.0003182,69.9982,102.457,269.9953,90.0841,4.3503e-05,4.26e-06,0.0,0 STARLINK-5640,1 55436U 23014AX  24086.60053872  .00000426  00000-0  43503-4 0  9995,2 55436  69.9982 102.4570 0003182 269.9953  90.0841 14.98334000 64255,6950.181,96.107,574.257,569.834,0.0
55436.0,STARLINK-5640,PAYLOAD,2024-03-27 04:49:59,14.98333408,0.0002641,69.9986,100.9433,269.7534,90.3322,9.3078e-05,1.018e-05,0.0,0 STARLINK-5640,1 55436U 23014AX  24087.20137828  .00001018  00000-0  93078-4 0  9996,2 55436  69.9986 100.9433 0002641 269.7534  90.3322 14.98333408 63406,6950.182,96.107,573.883,570.212,0.0
